[{"OBJECT_NAME":"STARLINK-3668","OBJECT_ID":"2022-025AY","EPOCH":"2026-03-09T07:07:41.768544","MEAN_MOTION":15.08855734,"ECCENTRICITY":0.00013099,"INCLINATION":53.2184,"RA_OF_ASC_NODE":20.9198,"ARG_OF_PERICENTER":88.4315,"MEAN_ANOMALY":271.6827,"EPHEMERIS_TYPE":0,"CLASSIFICATION_TYPE":"U","NORAD_CAT_ID":52002,"ELEMENT_SET_NO":999,"REV_AT_EPOCH":22086,"BSTAR":0.0002908835,"MEAN_MOTION_DOT":4.346e-5,"MEAN_MOTION_DDOT":0},{"OBJECT_NAME":"SL-8 DEB","OBJECT_ID":"1965-020AH","EPOCH":"2026-03-09T21:20:25.012032","MEAN_MOTION":15.12110764,"ECCENTRICITY":0.01461339,"INCLINATION":55.8593,"RA_OF_ASC_NODE":285.3244,"ARG_OF_PERICENTER":198.731,"MEAN_ANOMALY":160.8307,"EPHEMERIS_TYPE":0,"CLASSIFICATION_TYPE":"U","NORAD_CAT_ID":1392,"ELEMENT_SET_NO":999,"REV_AT_EPOCH":8107,"BSTAR":0.0016215192,"MEAN_MOTION_DOT":0.00036476,"MEAN_MOTION_DDOT":0}]
